$$SOE
2461302.500000000, A.D. 2026-Sep-19 00:00:00.0000, 1.325714108891908E+07, -3.776722683907577E+08, -3.687206538411145E+07,
2461309.500000000, A.D. 2026-Sep-26 00:00:00.0000, 2.512030968764051E+07, -3.774738401562846E+08, -4.033757024535587E+07,
2461316.500000000, A.D. 2026-Oct-03 00:00:00.0000, 3.696136101023758E+07, -3.769427152927030E+08, -4.376752202125989E+07,
2461323.500000000, A.D. 2026-Oct-10 00:00:00.0000, 4.877006724530379E+07, -3.760814968544490E+08, -4.715914514130935E+07,
2461330.500000000, A.D. 2026-Oct-17 00:00:00.0000, 6.053638161835690E+07, -3.748932123397732E+08, -5.050975415444300E+07,
2461337.500000000, A.D. 2026-Oct-24 00:00:00.0000, 7.225045872662118E+07, -3.733812968930661E+08, -5.381675825023668E+07,
2461344.500000000, A.D. 2026-Oct-31 00:00:00.0000, 8.390267348748133E+07, -3.715495755109509E+08, -5.707766526799984E+07,
2461351.500000000, A.D. 2026-Nov-07 00:00:00.0000, 9.548363897718920E+07, -3.694022443407818E+08, -6.029008521444608E+07,
2461358.500000000, A.D. 2026-Nov-14 00:00:00.0000, 1.069842233143188E+08, -3.669438503482020E+08, -6.345173323655018E+07,
2461365.500000000, A.D. 2026-Nov-21 00:00:00.0000, 1.183955637458775E+08, -3.641792688339047E+08, -6.656043183296254E+07,
2461372.500000000, A.D. 2026-Nov-28 00:00:00.0000, 1.297090769240069E+08, -3.611136819648775E+08, -6.961411246758507E+07,
2461379.500000000, A.D. 2026-Dec-05 00:00:00.0000, 1.409164689956544E+08, -3.577525591296669E+08, -7.261081698446371E+07,
2461386.500000000, A.D. 2026-Dec-12 00:00:00.0000, 1.520097456875861E+08, -3.541016361565647E+08, -7.554869860260074E+07,
2461393.500000000, A.D. 2026-Dec-19 00:00:00.0000, 1.629812205290012E+08, -3.501668935311996E+08, -7.842602233802693E+07,
2461400.500000000, A.D. 2026-Dec-26 00:00:00.0000, 1.738235211102067E+08, -3.459545346152300E+08, -8.124116493455438E+07,
2461407.500000000, A.D. 2027-Jan-02 00:00:00.0000, 1.845295937042343E+08, -3.414709641811637E+08, -8.399261436990204E+07,
2461414.500000000, A.D. 2027-Jan-09 00:00:00.0000, 1.950927064278453E+08, -3.367227673572147E+08, -8.667896897382829E+07,
2461421.500000000, A.D. 2027-Jan-16 00:00:00.0000, 2.055064510435981E+08, -3.317166890765055E+08, -8.929893618951282E+07,
2461428.500000000, A.D. 2027-Jan-23 00:00:00.0000, 2.157647435213673E+08, -3.264596141617958E+08, -9.185133101509595E+07,
2461435.500000000, A.D. 2027-Jan-30 00:00:00.0000, 2.258618236252484E+08, -3.209585481741641E+08, -9.433507417668582E+07,
2461442.500000000, A.D. 2027-Feb-06 00:00:00.0000, 2.357922540331826E+08, -3.152205987569246E+08, -9.674919007497522E+07,
2461449.500000000, A.D. 2027-Feb-13 00:00:00.0000, 2.455509186133484E+08, -3.092529563171591E+08, -9.909280439466406E+07,
2461456.500000000, A.D. 2027-Feb-20 00:00:00.0000, 2.551330175774920E+08, -3.030628748866854E+08, -1.013651412545369E+08,
2461463.500000000, A.D. 2027-Feb-27 00:00:00.0000, 2.645340609912038E+08, -2.966576564143231E+08, -1.035655203172401E+08,
2461470.500000000, A.D. 2027-Mar-06 00:00:00.0000, 2.737498637448630E+08, -2.900446365954900E+08, -1.056933540061551E+08,
2461477.500000000, A.D. 2027-Mar-13 00:00:00.0000, 2.827765404704942E+08, -2.832311702115093E+08, -1.077481445424001E+08,
2461484.500000000, A.D. 2027-Mar-20 00:00:00.0000, 2.916104993579997E+08, -2.762246168274710E+08, -1.097294807925835E+08,
2461491.500000000, A.D. 2027-Mar-27 00:00:00.0000, 3.002484351526073E+08, -2.690323274040533E+08, -1.116370350150887E+08,
2461498.500000000, A.D. 2027-Apr-03 00:00:00.0000, 3.086873216128996E+08, -2.616616318707996E+08, -1.134705595502241E+08,
2461505.500000000, A.D. 2027-Apr-10 00:00:00.0000, 3.169244035630731E+08, -2.541198276317888E+08, -1.152298834790763E+08,
2461512.500000000, A.D. 2027-Apr-17 00:00:00.0000, 3.249571886289198E+08, -2.464141690066599E+08, -1.169149092732581E+08,
2461519.500000000, A.D. 2027-Apr-24 00:00:00.0000, 3.327834387987499E+08, -2.385518576521527E+08, -1.185256094643263E+08,
2461526.500000000, A.D. 2027-May-01 00:00:00.0000, 3.404011621666403E+08, -2.305400339134633E+08, -1.200620233721574E+08,
2461533.500000000, A.D. 2027-May-08 00:00:00.0000, 3.478086052210889E+08, -2.223857683300273E+08, -1.215242538723904E+08,
2461540.500000000, A.D. 2027-May-15 00:00:00.0000, 3.550042442357110E+08, -2.140960523143102E+08, -1.229124640007886E+08,
2461547.500000000, A.D. 2027-May-22 00:00:00.0000, 3.619867742464947E+08, -2.056777905664032E+08, -1.242268734749392E+08,
2461554.500000000, A.D. 2027-May-29 00:00:00.0000, 3.687550990142310E+08, -1.971377966612906E+08, -1.254677555712170E+08,
2461561.500000000, A.D. 2027-Jun-05 00:00:00.0000, 3.753083228962902E+08, -1.884827886446002E+08, -1.266354341913145E+08,
2461568.500000000, A.D. 2027-Jun-12 00:00:00.0000, 3.816457426555525E+08, -1.797193841729748E+08, -1.277302809068704E+08,
2461575.500000000, A.D. 2027-Jun-19 00:00:00.0000, 3.877668389058750E+08, -1.708540961013278E+08, -1.287527120343753E+08,
2461582.500000000, A.D. 2027-Jun-26 00:00:00.0000, 3.936712674997287E+08, -1.618933287445602E+08, -1.297031857918577E+08,
2461589.500000000, A.D. 2027-Jul-03 00:00:00.0000, 3.993588510129781E+08, -1.528433747712998E+08, -1.305821995521697E+08,
2461596.500000000, A.D. 2027-Jul-10 00:00:00.0000, 4.048295703834890E+08, -1.437104126870602E+08, -1.313902871980703E+08,
2461603.500000000, A.D. 2027-Jul-17 00:00:00.0000, 4.100835567567712E+08, -1.345005049125573E+08, -1.321280165873750E+08,
2461610.500000000, A.D. 2027-Jul-24 00:00:00.0000, 4.151210837086735E+08, -1.252195964876693E+08, -1.327959871484838E+08,
2461617.500000000, A.D. 2027-Jul-31 00:00:00.0000, 4.199425602672247E+08, -1.158735141334220E+08, -1.333948276246537E+08,
2461624.500000000, A.D. 2027-Aug-07 00:00:00.0000, 4.245485245424794E+08, -1.064679644885868E+08, -1.339251938542777E+08,
2461631.500000000, A.D. 2027-Aug-14 00:00:00.0000, 4.289396356724198E+08, -9.700853174522467E+07, -1.343877663972193E+08,
2461638.500000000, A.D. 2027-Aug-21 00:00:00.0000, 4.331166647085749E+08, -8.750067802102867E+07, -1.347832483382868E+08,
2461645.500000000, A.D. 2027-Aug-28 00:00:00.0000, 4.370804878739560E+08, -7.794974523866034E+07, -1.351123634820395E+08,
2461652.500000000, A.D. 2027-Sep-04 00:00:00.0000, 4.408320810132105E+08, -6.836095598352230E+07, -1.353758546239484E+08,
2461659.500000000, A.D. 2027-Sep-11 00:00:00.0000, 4.443725138402383E+08, -5.873941397687204E+07, -1.355744818220694E+08,
2461666.500000000, A.D. 2027-Sep-18 00:00:00.0000, 4.477029441155596E+08, -4.909010479146028E+07, -1.357090207324079E+08,
2461673.500000000, A.D. 2027-Sep-25 00:00:00.0000, 4.508246119801551E+08, -3.941789686529317E+07, -1.357802610329002E+08,
2461680.500000000, A.D. 2027-Oct-02 00:00:00.0000, 4.537388345178820E+08, -2.972754276492347E+07, -1.357890049381937E+08,
2461687.500000000, A.D. 2027-Oct-09 00:00:00.0000, 4.564470005654809E+08, -2.002368068293968E+07, -1.357360658052913E+08,
2461694.500000000, A.D. 2027-Oct-16 00:00:00.0000, 4.589505658294408E+08, -1.031083620619493E+07, -1.356222668380516E+08,
2461701.500000000, A.D. 2027-Oct-23 00:00:00.0000, 4.612510485648146E+08, -5.934243437743858E+05, -1.354484399123742E+08,
2461708.500000000, A.D. 2027-Oct-30 00:00:00.0000, 4.633500261846421E+08, 9.124248811360233E+06, -1.352154245035785E+08,
2461715.500000000, A.D. 2027-Nov-06 00:00:00.0000, 4.652491316307744E+08, 1.883798593078193E+07, -1.349240665142380E+08,
2461722.500000000, A.D. 2027-Nov-13 00:00:00.0000, 4.669500475165644E+08, 2.854369774652299E+07, -1.345752169881378E+08,
2461729.500000000, A.D. 2027-Nov-20 00:00:00.0000, 4.684545009376063E+08, 3.823739961956201E+07, -1.341697311526551E+08,
2461736.500000000, A.D. 2027-Nov-27 00:00:00.0000, 4.697642605602171E+08, 4.791520835620820E+07, -1.337084676921330E+08,
2461743.500000000, A.D. 2027-Dec-04 00:00:00.0000, 4.708811339569475E+08, 5.757334019717604E+07, -1.331922879888029E+08,
2461750.500000000, A.D. 2027-Dec-11 00:00:00.0000, 4.718069646321172E+08, 6.720810902505028E+07, -1.326220553567881E+08,
2461757.500000000, A.D. 2027-Dec-18 00:00:00.0000, 4.725436290057812E+08, 7.681592445953125E+07, -1.319986343193679E+08,
2461764.500000000, A.D. 2027-Dec-25 00:00:00.0000, 4.730930335012587E+08, 8.639328984581973E+07, -1.313228899407598E+08,
2461771.500000000, A.D. 2028-Jan-01 00:00:00.0000, 4.734571117704490E+08, 9.593680015743959E+07, -1.305956872120141E+08,
$$EOE